GLOBALSTAR M001         
1 25162U 98008A   24275.54494834 -.00000096  00000+0  34147-5 0  9991
2 25162  52.0066   6.0157 0001989  80.0701 292.5851 12.38194310211670
GLOBALSTAR M004         
1 25163U 98008B   24275.60326269 -.00000036  00000+0  37373-3 0  9991
2 25163  51.9982 123.0179 0003934  77.7561 315.5788 12.63373514229003
GLOBALSTAR M002         
1 25164U 98008C   24275.39025014 -.00000069  00000+0  15507-3 0  9993
2 25164  51.9999 169.0928 0002148  44.1786 315.9205 11.61504105153998
GLOBALSTAR M003         
1 25165U 98008D   24275.44972178  .00000043  00000+0  14153-2 0  9998
2 25165  51.9926 165.1082 0008380 129.4678  42.1535 12.12040772201843
GLOBALSTAR M014         
1 25306U 98023A   24275.79055935 -.00000039  00000+0  71801-3 0  9993
2 25306  51.9818  96.7446 0000382 159.1677 214.0330 11.65472260161033
GLOBALSTAR M006         
1 25307U 98023B   24275.41154787 -.00000012  00000+0  12936-2 0  9992
2 25307  51.9917 140.5069 0004074  11.6083 159.7515 11.58167469186848
GLOBALSTAR M015         
1 25308U 98023C   24275.58238358 -.00000042  00000+0  72030-3 0  9993
2 25308  51.9806 226.6993 0012812 338.5237 192.2206 11.48851585164358
GLOBALSTAR M008         
1 25309U 98023D   24275.32923181 -.00000062  00000+0  27108-3 0  9999
2 25309  51.9958 228.5404 0002832 359.6809 156.7896 12.36050372205837
